{"type": "FeatureCollection", "features": [{"type": "Feature", "properties": {"story": "jp-minamitorishima", "country": "Japan", "contract": "DORDPMN1", "resource": "Polymetallic nodules", "res_code": "PMN", "km2": 75045}, "geometry": {"type": "LineString", "coordinates": [[153.9667, 24.3], [154.8296, 24.2873], [155.6912, 24.2693], [156.5515, 24.2459], [157.4105, 24.2173], [158.2682, 24.1833], [159.1246, 24.1441], [159.9796, 24.0995], [160.8334, 24.0496], [161.6858, 23.9944], [162.537, 23.9339], [163.3868, 23.8681], [164.2353, 23.797], [165.0825, 23.7206], [165.9284, 23.6388], [166.773, 23.5518], [167.6163, 23.4594], [168.4583, 23.3617], [169.2989, 23.2588], [170.1383, 23.1505], [170.9763, 23.0369], [171.8131, 22.918], [172.6485, 22.7937], [173.4826, 22.6642], [174.3155, 22.5294], [175.147, 22.3892], [175.9772, 22.2437], [176.806, 22.093], [177.6336, 21.9369], [178.4599, 21.7755], [179.2849, 21.6088], [180.1085, 21.4368], [180.9309, 21.2595], [181.7519, 21.0768], [182.5716, 20.8889], [183.3901, 20.6957], [184.2072, 20.4971], [185.023, 20.2932], [185.8375, 20.084], [186.6507, 19.8696], [187.4625, 19.6498], [188.2731, 19.4246], [189.0824, 19.1942], [189.8903, 18.9585], [190.697, 18.7175], [191.5023, 18.4711], [192.3063, 18.2194], [193.109, 17.9625], [193.9104, 17.7002], [194.7105, 17.4326], [195.5093, 17.1597], [196.3068, 16.8815], [197.103, 16.598], [197.8979, 16.3091], [198.6914, 16.015], [199.4837, 15.7156], [200.2746, 15.4108], [201.0642, 15.1007], [201.8525, 14.7854], [202.6396, 14.4647], [203.4253, 14.1387], [204.2097, 13.8074], [204.9927, 13.4707], [205.7745, 13.1288], [206.555, 12.7816], [207.3342, 12.429], [208.112, 12.0712], [208.8886, 11.708], [209.6638, 11.3395], [210.4377, 10.9657], [211.2103, 10.5866], [211.9816, 10.2022], [212.7516, 9.8125]]}}, {"type": "Feature", "properties": {"story": "jp-minamitorishima", "country": "Japan", "contract": "JOGMECCRFC1", "resource": "Cobalt-rich ferromanganese crusts", "res_code": "CRFC", "km2": 2001}, "geometry": {"type": "LineString", "coordinates": [[153.9667, 24.3], [154.0461, 24.2724], [154.1253, 24.2445], [154.2044, 24.2163], [154.2833, 24.1878], [154.3621, 24.1591], [154.4408, 24.13], [154.5192, 24.1007], [154.5976, 24.0711], [154.6758, 24.0411], [154.7539, 24.0109], [154.8318, 23.9805], [154.9095, 23.9497], [154.9871, 23.9186], [155.0646, 23.8873], [155.1419, 23.8556], [155.2191, 23.8237], [155.2961, 23.7915], [155.373, 23.759], [155.4497, 23.7262], [155.5263, 23.6931], [155.6028, 23.6598], [155.6791, 23.6261], [155.7552, 23.5922], [155.8312, 23.5579], [155.9071, 23.5234], [155.9828, 23.4886], [156.0583, 23.4535], [156.1338, 23.4181], [156.209, 23.3825], [156.2841, 23.3465], [156.3591, 23.3103], [156.4339, 23.2737], [156.5086, 23.2369], [156.5831, 23.1998], [156.6575, 23.1624], [156.7318, 23.1247], [156.8059, 23.0868], [156.8798, 23.0485], [156.9536, 23.01], [157.0273, 22.9711], [157.1008, 22.932], [157.1741, 22.8926], [157.2473, 22.8529], [157.3204, 22.8129], [157.3933, 22.7727], [157.4661, 22.7321], [157.5387, 22.6913], [157.6112, 22.6501], [157.6835, 22.6087], [157.7557, 22.567], [157.8278, 22.525], [157.8996, 22.4827], [157.9714, 22.4401], [158.043, 22.3973], [158.1144, 22.3541], [158.1857, 22.3107], [158.2569, 22.267], [158.3279, 22.2229], [158.3988, 22.1786], [158.4695, 22.1341], [158.5401, 22.0892], [158.6105, 22.044], [158.6808, 21.9986], [158.7509, 21.9528], [158.8209, 21.9068], [158.8907, 21.8605], [158.9604, 21.8139], [159.0299, 21.767], [159.0993, 21.7198], [159.1686, 21.6723], [159.2377, 21.6246], [159.3066, 21.5765]]}}, {"type": "Feature", "properties": {"story": "ck-rarotonga", "country": "Cook Islands", "contract": "CIICPMN1", "resource": "Polymetallic nodules", "res_code": "PMN", "km2": 72988}, "geometry": {"type": "LineString", "coordinates": [[-159.7781, -21.235], [-159.5151, -20.513], [-159.2458, -19.797], [-158.9702, -19.0873], [-158.6882, -18.3836], [-158.3999, -17.6861], [-158.1052, -16.9947], [-157.8042, -16.3095], [-157.4969, -15.6303], [-157.1832, -14.9574], [-156.8632, -14.2905], [-156.5368, -13.6298], [-156.2041, -12.9752], [-155.8651, -12.3268], [-155.5197, -11.6845], [-155.168, -11.0483], [-154.8099, -10.4182], [-154.4456, -9.7943], [-154.0748, -9.1766], [-153.6978, -8.5649], [-153.3144, -7.9594], [-152.9246, -7.36], [-152.5285, -6.7668], [-152.1261, -6.1797], [-151.7174, -5.5987], [-151.3023, -5.0239], [-150.8808, -4.4552], [-150.453, -3.8926], [-150.0189, -3.3361], [-149.5785, -2.7858], [-149.1317, -2.2417], [-148.6786, -1.7036], [-148.2191, -1.1717], [-147.7533, -0.6459], [-147.2811, -0.1263], [-146.8027, 0.3872], [-146.3178, 0.8946], [-145.8267, 1.3958], [-145.3292, 1.8909], [-144.8253, 2.3799], [-144.3151, 2.8627], [-143.7986, 3.3394], [-143.2758, 3.81], [-142.7466, 4.2745], [-142.2111, 4.7328], [-141.6692, 5.1849], [-141.121, 5.631], [-140.5664, 6.0709], [-140.0055, 6.5046], [-139.4383, 6.9323], [-138.8647, 7.3538], [-138.2848, 7.7691], [-137.6986, 8.1784], [-137.106, 8.5815], [-136.5071, 8.9784], [-135.9018, 9.3693], [-135.2902, 9.754], [-134.6723, 10.1325], [-134.048, 10.505], [-133.4174, 10.8713], [-132.7805, 11.2314], [-132.1372, 11.5855], [-131.4876, 11.9334], [-130.8316, 12.2751], [-130.1693, 12.6108], [-129.5006, 12.9403], [-128.8257, 13.2636], [-128.1443, 13.5809], [-127.4567, 13.892], [-126.7627, 14.1969], [-126.0623, 14.4957], [-125.3557, 14.7884], [-124.6427, 15.075]]}}, {"type": "Feature", "properties": {"story": "kr-seoul", "country": "South Korea", "contract": "KOREACRFC1", "resource": "Cobalt-rich ferromanganese crusts", "res_code": "CRFC", "km2": 6000}, "geometry": {"type": "LineString", "coordinates": [[126.978, 37.5665], [127.3037, 37.2856], [127.6291, 37.0045], [127.9544, 36.7232], [128.2795, 36.4417], [128.6045, 36.1599], [128.9292, 35.878], [129.2538, 35.5959], [129.5781, 35.3135], [129.9023, 35.031], [130.2263, 34.7483], [130.5501, 34.4653], [130.8738, 34.1821], [131.1972, 33.8988], [131.5205, 33.6152], [131.8435, 33.3315], [132.1664, 33.0475], [132.4892, 32.7633], [132.8117, 32.4789], [133.134, 32.1944], [133.4562, 31.9096], [133.7781, 31.6246], [134.0999, 31.3394], [134.4215, 31.054], [134.743, 30.7684], [135.0642, 30.4826], [135.3852, 30.1966], [135.7061, 29.9104], [136.0268, 29.6239], [136.3473, 29.3373], [136.6676, 29.0505], [136.9877, 28.7634], [137.3077, 28.4762], [137.6274, 28.1888], [137.947, 27.9011], [138.2664, 27.6133], [138.5856, 27.3252], [138.9046, 27.037], [139.2235, 26.7485], [139.5421, 26.4598], [139.8606, 26.171], [140.1789, 25.8819], [140.497, 25.5926], [140.8149, 25.3031], [141.1326, 25.0134], [141.4502, 24.7235], [141.7675, 24.4334], [142.0847, 24.1431], [142.4017, 23.8526], [142.7185, 23.5619], [143.0351, 23.271], [143.3516, 22.9799], [143.6678, 22.6886], [143.9839, 22.3971], [144.2998, 22.1053], [144.6155, 21.8134], [144.931, 21.5212], [145.2463, 21.2289], [145.5615, 20.9364], [145.8764, 20.6436], [146.1912, 20.3506], [146.5058, 20.0575], [146.8202, 19.7641], [147.1345, 19.4706], [147.4485, 19.1768], [147.7624, 18.8828], [148.076, 18.5886], [148.3895, 18.2942], [148.7028, 17.9997], [149.0159, 17.7049], [149.3289, 17.4099], [149.6416, 17.1147], [149.9542, 16.8193]]}}, {"type": "Feature", "properties": {"story": "kr-seoul", "country": "South Korea", "contract": "KOREAPMN1", "resource": "Polymetallic nodules", "res_code": "PMN", "km2": 74828}, "geometry": {"type": "LineString", "coordinates": [[126.978, 37.5665], [128.457, 37.6164], [129.9339, 37.6565], [131.4088, 37.687], [132.8817, 37.7078], [134.3526, 37.7189], [135.8215, 37.7204], [137.2883, 37.7121], [138.7531, 37.6942], [140.2159, 37.6666], [141.6766, 37.6292], [143.1354, 37.5822], [144.5921, 37.5256], [146.0468, 37.4592], [147.4994, 37.3831], [148.9501, 37.2974], [150.3987, 37.202], [151.8453, 37.0969], [153.2898, 36.9821], [154.7324, 36.8576], [156.1729, 36.7234], [157.6114, 36.5796], [159.0479, 36.426], [160.4823, 36.2628], [161.9148, 36.0899], [163.3452, 35.9073], [164.7735, 35.715], [166.1999, 35.5131], [167.6242, 35.3014], [169.0466, 35.0801], [170.4668, 34.849], [171.8851, 34.6083], [173.3013, 34.3579], [174.7156, 34.0979], [176.1277, 33.8281], [177.5379, 33.5486], [178.9461, 33.2595], [180.3522, 32.9607], [181.7563, 32.6522], [183.1584, 32.334], [184.5584, 32.0061], [185.9564, 31.6685], [187.3524, 31.3213], [188.7464, 30.9644], [190.1384, 30.5977], [191.5283, 30.2214], [192.9162, 29.8354], [194.3021, 29.4398], [195.686, 29.0344], [197.0678, 28.6194], [198.4476, 28.1946], [199.8254, 27.7602], [201.2012, 27.3161], [202.5749, 26.8623], [203.9467, 26.3988], [205.3164, 25.9257], [206.684, 25.4428], [208.0497, 24.9503], [209.4133, 24.4481], [210.7749, 23.9362], [212.1345, 23.4146], [213.4921, 22.8833], [214.8476, 22.3423], [216.2011, 21.7917], [217.5526, 21.2313], [218.9021, 20.6613], [220.2495, 20.0816], [221.5949, 19.4922], [222.9383, 18.8932], [224.2797, 18.2844], [225.619, 17.6659], [226.9564, 17.0378], [228.2917, 16.4]]}}, {"type": "Feature", "properties": {"story": "cn-zhoushan", "country": "China", "contract": "BPHDCPMN1", "resource": "Polymetallic nodules", "res_code": "PMN", "km2": 74052}, "geometry": {"type": "LineString", "coordinates": [[122.2049, 29.9887], [122.7282, 29.9998], [123.2507, 30.0076], [123.7725, 30.012], [124.2936, 30.013], [124.8139, 30.0106], [125.3335, 30.0049], [125.8524, 29.9958], [126.3705, 29.9833], [126.8879, 29.9675], [127.4045, 29.9482], [127.9205, 29.9256], [128.4356, 29.8997], [128.9501, 29.8703], [129.4638, 29.8376], [129.9767, 29.8015], [130.489, 29.762], [131.0004, 29.7192], [131.5112, 29.673], [132.0212, 29.6234], [132.5305, 29.5704], [133.039, 29.5141], [133.5468, 29.4544], [134.0539, 29.3913], [134.5602, 29.3248], [135.0658, 29.255], [135.5707, 29.1818], [136.0748, 29.1052], [136.5781, 29.0253], [137.0808, 28.9419], [137.5827, 28.8552], [138.0839, 28.7652], [138.5843, 28.6717], [139.084, 28.5749], [139.5829, 28.4747], [140.0812, 28.3711], [140.5786, 28.2642], [141.0754, 28.1539], [141.5714, 28.0402], [142.0667, 27.9231], [142.5612, 27.8027], [143.055, 27.6789], [143.548, 27.5517], [144.0404, 27.4211], [144.5319, 27.2872], [145.0228, 27.1499], [145.5129, 27.0092], [146.0023, 26.8652], [146.4909, 26.7178], [146.9788, 26.567], [147.466, 26.4128], [147.9524, 26.2552], [148.4381, 26.0943], [148.923, 25.93], [149.4072, 25.7624], [149.8907, 25.5913], [150.3734, 25.4169], [150.8554, 25.2391], [151.3367, 25.058], [151.8172, 24.8734], [152.297, 24.6855], [152.7761, 24.4942], [153.2544, 24.2996], [153.732, 24.1016], [154.2088, 23.9002], [154.6849, 23.6954], [155.1603, 23.4872], [155.6349, 23.2757], [156.1088, 23.0608], [156.5819, 22.8425], [157.0544, 22.6209], [157.526, 22.3959], [157.997, 22.1675]]}}, {"type": "Feature", "properties": {"story": "cn-zhoushan", "country": "China", "contract": "CMMPMN1", "resource": "Polymetallic nodules", "res_code": "PMN", "km2": 72745}, "geometry": {"type": "LineString", "coordinates": [[122.2049, 29.9887], [123.4075, 29.9697], [124.6084, 29.9434], [125.8074, 29.9096], [127.0045, 29.8685], [128.1999, 29.8199], [129.3934, 29.764], [130.5851, 29.7007], [131.7749, 29.63], [132.963, 29.5519], [134.1492, 29.4664], [135.3335, 29.3736], [136.5161, 29.2733], [137.6968, 29.1656], [138.8757, 29.0506], [140.0528, 28.9282], [141.228, 28.7983], [142.4014, 28.6611], [143.573, 28.5165], [144.7428, 28.3645], [145.9107, 28.2051], [147.0768, 28.0384], [148.2411, 27.8642], [149.4035, 27.6826], [150.5641, 27.4937], [151.7229, 27.2974], [152.8799, 27.0936], [154.035, 26.8825], [155.1884, 26.664], [156.3398, 26.4381], [157.4895, 26.2048], [158.6373, 25.9641], [159.7833, 25.7161], [160.9275, 25.4606], [162.0699, 25.1977], [163.2104, 24.9275], [164.3491, 24.6499], [165.4859, 24.3648], [166.621, 24.0724], [167.7542, 23.7726], [168.8856, 23.4654], [170.0151, 23.1509], [171.1428, 22.8289], [172.2687, 22.4995], [173.3928, 22.1628], [174.5151, 21.8186], [175.6355, 21.4671], [176.7541, 21.1082], [177.8708, 20.7418], [178.9858, 20.3681], [180.0989, 19.987], [181.2102, 19.5985], [182.3196, 19.2027], [183.4273, 18.7994], [184.5331, 18.3887], [185.637, 17.9707], [186.7392, 17.5453], [187.8395, 17.1124], [188.938, 16.6722], [190.0347, 16.2246], [191.1295, 15.7696], [192.2225, 15.3072], [193.3137, 14.8374], [194.403, 14.3603], [195.4906, 13.8757], [196.5763, 13.3837], [197.6601, 12.8844], [198.7422, 12.3777], [199.8224, 11.8635], [200.9008, 11.342], [201.9774, 10.8131], [203.0521, 10.2768], [204.125, 9.7332]]}}, {"type": "Feature", "properties": {"story": "cn-zhoushan", "country": "China", "contract": "COMRACRFC1", "resource": "Cobalt-rich ferromanganese crusts", "res_code": "CRFC", "km2": 2001}, "geometry": {"type": "LineString", "coordinates": [[122.2049, 29.9887], [122.7147, 29.8075], [123.2235, 29.6245], [123.7313, 29.4396], [124.2383, 29.253], [124.7443, 29.0645], [125.2493, 28.8742], [125.7534, 28.6821], [126.2566, 28.4881], [126.7588, 28.2923], [127.2601, 28.0948], [127.7605, 27.8953], [128.2599, 27.6941], [128.7584, 27.4911], [129.2559, 27.2862], [129.7525, 27.0795], [130.2482, 26.871], [130.7429, 26.6606], [131.2367, 26.4485], [131.7295, 26.2345], [132.2214, 26.0187], [132.7124, 25.8011], [133.2024, 25.5816], [133.6914, 25.3604], [134.1796, 25.1373], [134.6668, 24.9124], [135.153, 24.6857], [135.6384, 24.4571], [136.1227, 24.2267], [136.6062, 23.9945], [137.0887, 23.7605], [137.5702, 23.5247], [138.0509, 23.2871], [138.5305, 23.0476], [139.0093, 22.8063], [139.4871, 22.5632], [139.9639, 22.3182], [140.4399, 22.0715], [140.9148, 21.8229], [141.3889, 21.5725], [141.862, 21.3203], [142.3341, 21.0662], [142.8054, 20.8104], [143.2756, 20.5527], [143.745, 20.2932], [144.2134, 20.0318], [144.6808, 19.7687], [145.1474, 19.5037], [145.613, 19.2369], [146.0776, 18.9683], [146.5413, 18.6979], [147.0041, 18.4256], [147.4659, 18.1516], [147.9268, 17.8757], [148.3867, 17.598], [148.8457, 17.3184], [149.3038, 17.0371], [149.7609, 16.7539], [150.2171, 16.4689], [150.6723, 16.1821], [151.1266, 15.8934], [151.58, 15.6029], [152.0324, 15.3107], [152.4839, 15.0166], [152.9345, 14.7206], [153.3841, 14.4229], [153.8327, 14.1233], [154.2805, 13.8219], [154.7273, 13.5187], [155.1731, 13.2137], [155.618, 12.9068], [156.062, 12.5981], [156.505, 12.2876]]}}, {"type": "Feature", "properties": {"story": "cn-zhoushan", "country": "China", "contract": "COMRAPMN1", "resource": "Polymetallic nodules", "res_code": "PMN", "km2": 75094}, "geometry": {"type": "LineString", "coordinates": [[122.2049, 29.9887], [123.5668, 30.0047], [124.9268, 30.012], [126.2848, 30.0106], [127.6408, 30.0006], [128.9949, 29.9819], [130.347, 29.9545], [131.6972, 29.9184], [133.0454, 29.8737], [134.3916, 29.8203], [135.7359, 29.7582], [137.0782, 29.6874], [138.4186, 29.608], [139.757, 29.5199], [141.0934, 29.4231], [142.4279, 29.3177], [143.7604, 29.2035], [145.091, 29.0807], [146.4196, 28.9493], [147.7463, 28.8091], [149.071, 28.6603], [150.3937, 28.5028], [151.7145, 28.3366], [153.0333, 28.1618], [154.3501, 27.9783], [155.665, 27.7861], [156.9779, 27.5852], [158.2889, 27.3757], [159.5979, 27.1575], [160.905, 26.9306], [162.2101, 26.695], [163.5132, 26.4508], [164.8144, 26.1979], [166.1136, 25.9363], [167.4108, 25.666], [168.7061, 25.3871], [169.9995, 25.0995], [171.2909, 24.8032], [172.5803, 24.4982], [173.8677, 24.1846], [175.1532, 23.8623], [176.4368, 23.5313], [177.7183, 23.1917], [178.998, 22.8434], [180.2756, 22.4864], [181.5513, 22.1207], [182.8251, 21.7463], [184.0969, 21.3633], [185.3667, 20.9716], [186.6345, 20.5713], [187.9004, 20.1622], [189.1644, 19.7445], [190.4264, 19.3181], [191.6864, 18.883], [192.9445, 18.4393], [194.2006, 17.9869], [195.4547, 17.5258], [196.7069, 17.056], [197.9571, 16.5776], [199.2054, 16.0905], [200.4517, 15.5947], [201.6961, 15.0903], [202.9385, 14.5771], [204.1789, 14.0553], [205.4174, 13.5248], [206.6539, 12.9857], [207.8884, 12.4379], [209.121, 11.8814], [210.3517, 11.3162], [211.5803, 10.7423], [212.807, 10.1598], [214.0318, 9.5686], [215.2546, 8.9688]]}}]}